start=new Date('2022-03-26T00:00:00.000Z').valueOf();
sats=[{"CLASSIFICATION_TYPE":"U","MEAN_MOTION_DOT":"0.00015626","OBJECT_NAME":"STARLINK-1972","OBJECT_TYPE":"PAYLOAD","NORAD_CAT_ID":"47627","PERIAPSIS":"546.064","REV_AT_EPOCH":"6298","INCLINATION":"53.0545","BSTAR":"0.00106590000000","OBJECT_ID":"2021-012H","EPHEMERIS_TYPE":"0","ARG_OF_PERICENTER":"56.7795","REF_FRAME":"TEME","MEAN_MOTION":"15.06390286","ELEMENT_SET_NO":"999","RCS_SIZE":"LARGE","APOAPSIS":"548.423","SITE":"AFETR","MEAN_MOTION_DDOT":"0.0000000000000","SEMIMAJOR_AXIS":"6925.378","MEAN_ELEMENT_THEORY":"SGP4","RA_OF_ASC_NODE":"343.9417","TIME_SYSTEM":"UTC","MEAN_ANOMALY":"131.9452","TLE_LINE1":"1 47627U 21012H   22084.58334491  .00015626  00000-0  10659-2 0  9998","ECCENTRICITY":"0.00017030","DECAY_DATE":null,"TLE_LINE2":"2 47627  53.0545 343.9417 0001703  56.7795 131.9452 15.06390286 62981","PERIOD":"95.593","FILE":"3373462","CENTER_NAME":"EARTH","COUNTRY_CODE":"US","LAUNCH_DATE":"2021-02-16","EPOCH":"2022-03-25T14:00:01.000224","GP_ID":"199632721"},{"FILE":"3373922","CENTER_NAME":"EARTH","LAUNCH_DATE":"2021-02-16","EPOCH":"2022-03-25T16:58:51.468960","COUNTRY_CODE":"US","GP_ID":"199667489","MEAN_ANOMALY":"299.6385","TIME_SYSTEM":"UTC","TLE_LINE1":"1 47628U 21012J   22084.70754015  .00000678  00000-0  64405-4 0  9992","ECCENTRICITY":"0.00018130","DECAY_DATE":null,"TLE_LINE2":"2 47628  53.0545  78.4003 0001813  60.4784 299.6385 15.06399712 61670","PERIOD":"95.592","MEAN_ELEMENT_THEORY":"SGP4","SEMIMAJOR_AXIS":"6925.349","RA_OF_ASC_NODE":"78.4003","SITE":"AFETR","APOAPSIS":"548.470","MEAN_MOTION_DDOT":"0.0000000000000","ELEMENT_SET_NO":"999","RCS_SIZE":"LARGE","OBJECT_ID":"2021-012J","EPHEMERIS_TYPE":"0","REF_FRAME":"TEME","ARG_OF_PERICENTER":"60.4784","MEAN_MOTION":"15.06399712","NORAD_CAT_ID":"47628","PERIAPSIS":"545.959","REV_AT_EPOCH":"6167","INCLINATION":"53.0545","BSTAR":"0.00006440500000","CLASSIFICATION_TYPE":"U","MEAN_MOTION_DOT":"0.00000678","OBJECT_NAME":"STARLINK-1973","OBJECT_TYPE":"PAYLOAD"},{"ELEMENT_SET_NO":"999","RCS_SIZE":"LARGE","EPHEMERIS_TYPE":"0","OBJECT_ID":"2021-012K","REF_FRAME":"TEME","ARG_OF_PERICENTER":"69.9850","MEAN_MOTION":"15.06391982","NORAD_CAT_ID":"47629","PERIAPSIS":"546.046","REV_AT_EPOCH":"6339","INCLINATION":"53.0550","BSTAR":"-0.00057072000000","MEAN_MOTION_DOT":"-0.00008770","CLASSIFICATION_TYPE":"U","OBJECT_NAME":"STARLINK-1974","OBJECT_TYPE":"PAYLOAD","FILE":"3373923","CENTER_NAME":"EARTH","EPOCH":"2022-03-25T22:00:01.999584","LAUNCH_DATE":"2021-02-16","COUNTRY_CODE":"US","GP_ID":"199667508","MEAN_ANOMALY":"84.9622","TIME_SYSTEM":"UTC","TLE_LINE1":"1 47629U 21012K   22084.91668981 -.00008770  00000-0 -57072-3 0  9996","ECCENTRICITY":"0.00017210","DECAY_DATE":null,"TLE_LINE2":"2 47629  53.0550 317.4519 0001721  69.9850  84.9622 15.06391982 63392","PERIOD":"95.593","MEAN_ELEMENT_THEORY":"SGP4","SEMIMAJOR_AXIS":"6925.373","RA_OF_ASC_NODE":"317.4519","SITE":"AFETR","APOAPSIS":"548.430","MEAN_MOTION_DDOT":"0.0000000000000"},{"MEAN_ANOMALY":"314.5949","TIME_SYSTEM":"UTC","TLE_LINE1":"1 47630U 21012L   22084.30667275  .00000033  00000-0  21159-4 0  9996","DECAY_DATE":null,"ECCENTRICITY":"0.00020720","TLE_LINE2":"2 47630  53.0565  60.2035 0002072  45.5209 314.5949 15.06406727 62391","PERIOD":"95.592","FILE":"3373822","CENTER_NAME":"EARTH","LAUNCH_DATE":"2021-02-16","COUNTRY_CODE":"US","EPOCH":"2022-03-25T07:21:36.525600","GP_ID":"199661627","APOAPSIS":"548.628","SITE":"AFETR","MEAN_MOTION_DDOT":"0.0000000000000","SEMIMAJOR_AXIS":"6925.328","MEAN_ELEMENT_THEORY":"SGP4","RA_OF_ASC_NODE":"60.2035","EPHEMERIS_TYPE":"0","OBJECT_ID":"2021-012L","REF_FRAME":"TEME","ARG_OF_PERICENTER":"45.5209","MEAN_MOTION":"15.06406727","ELEMENT_SET_NO":"999","RCS_SIZE":"LARGE","MEAN_MOTION_DOT":"0.00000033","OBJECT_NAME":"STARLINK-1983","CLASSIFICATION_TYPE":"U","OBJECT_TYPE":"PAYLOAD","NORAD_CAT_ID":"47630","REV_AT_EPOCH":"6239","PERIAPSIS":"545.758","INCLINATION":"53.0565","BSTAR":"0.00002115900000"},{"RCS_SIZE":"LARGE","ELEMENT_SET_NO":"999","MEAN_MOTION":"15.06390549","ARG_OF_PERICENTER":"65.8138","REF_FRAME":"TEME","EPHEMERIS_TYPE":"0","OBJECT_ID":"2021-012N","BSTAR":"0.00040951000000","INCLINATION":"53.0544","NORAD_CAT_ID":"47632","REV_AT_EPOCH":"6298","PERIAPSIS":"546.143","OBJECT_TYPE":"PAYLOAD","CLASSIFICATION_TYPE":"U","MEAN_MOTION_DOT":"0.00005822","OBJECT_NAME":"STARLINK-1992","COUNTRY_CODE":"US","LAUNCH_DATE":"2021-02-16","EPOCH":"2022-03-25T14:00:01.000224","GP_ID":"199633251","CENTER_NAME":"EARTH","FILE":"3373456","TLE_LINE2":"2 47632  53.0544 343.9641 0001588  65.8138 348.0293 15.06390549 62984","PERIOD":"95.593","DECAY_DATE":null,"ECCENTRICITY":"0.00015880","TLE_LINE1":"1 47632U 21012N   22084.58334491  .00005822  00000-0  40951-3 0  9990","MEAN_ANOMALY":"348.0293","TIME_SYSTEM":"UTC","RA_OF_ASC_NODE":"343.9641","SEMIMAJOR_AXIS":"6925.378","MEAN_ELEMENT_THEORY":"SGP4","MEAN_MOTION_DDOT":"0.0000000000000","SITE":"AFETR","APOAPSIS":"548.342"},{"INCLINATION":"53.0538","REV_AT_EPOCH":"6214","PERIAPSIS":"545.930","NORAD_CAT_ID":"47633","BSTAR":"0.00005992900000","MEAN_MOTION_DOT":"0.00000611","OBJECT_NAME":"STARLINK-2009","CLASSIFICATION_TYPE":"U","OBJECT_TYPE":"PAYLOAD","ELEMENT_SET_NO":"999","RCS_SIZE":"LARGE","REF_FRAME":"TEME","ARG_OF_PERICENTER":"57.4920","EPHEMERIS_TYPE":"0","OBJECT_ID":"2021-012P","MEAN_MOTION":"15.06399127","MEAN_ELEMENT_THEORY":"SGP4","SEMIMAJOR_AXIS":"6925.351","RA_OF_ASC_NODE":"80.4073","SITE":"AFETR","APOAPSIS":"548.503","MEAN_MOTION_DDOT":"0.0000000000000","FILE":"3373822","GP_ID":"199662628","LAUNCH_DATE":"2021-02-16","EPOCH":"2022-03-25T06:11:19.216320","COUNTRY_CODE":"US","CENTER_NAME":"EARTH","TLE_LINE1":"1 47633U 21012P   22084.25786130  .00000611  00000-0  59929-4 0  9993","MEAN_ANOMALY":"302.6248","TIME_SYSTEM":"UTC","PERIOD":"95.592","TLE_LINE2":"2 47633  53.0538  80.4073 0001858  57.4920 302.6248 15.06399127 62141","ECCENTRICITY":"0.00018580","DECAY_DATE":null},{"OBJECT_TYPE":"PAYLOAD","OBJECT_NAME":"STARLINK-2010","MEAN_MOTION_DOT":"0.00001558","CLASSIFICATION_TYPE":"U","BSTAR":"0.00012345000000","INCLINATION":"53.0536","NORAD_CAT_ID":"47634","PERIAPSIS":"545.923","REV_AT_EPOCH":"6213","MEAN_MOTION":"15.06401318","ARG_OF_PERICENTER":"61.4829","REF_FRAME":"TEME","OBJECT_ID":"2021-012Q","EPHEMERIS_TYPE":"0","RCS_SIZE":"LARGE","ELEMENT_SET_NO":"999","MEAN_MOTION_DDOT":"0.0000000000000","APOAPSIS":"548.496","SITE":"AFETR","RA_OF_ASC_NODE":"79.9166","SEMIMAJOR_AXIS":"6925.345","MEAN_ELEMENT_THEORY":"SGP4","TLE_LINE2":"2 47634  53.0536  79.9166 0001858  61.4829 298.6347 15.06401318 62138","PERIOD":"95.592","DECAY_DATE":null,"ECCENTRICITY":"0.00018580","TLE_LINE1":"1 47634U 21012Q   22084.36844151  .00001558  00000-0  12345-3 0  9995","MEAN_ANOMALY":"298.6347","TIME_SYSTEM":"UTC","EPOCH":"2022-03-25T08:50:33.346464","LAUNCH_DATE":"2021-02-16","COUNTRY_CODE":"US","GP_ID":"199663379","CENTER_NAME":"EARTH","FILE":"3373822"},{"MEAN_MOTION_DDOT":"0.0000000000000","SITE":"AFETR","APOAPSIS":"548.242","RA_OF_ASC_NODE":"343.8537","SEMIMAJOR_AXIS":"6925.422","MEAN_ELEMENT_THEORY":"SGP4","PERIOD":"95.594","TLE_LINE2":"2 47635  53.0589 343.8537 0001378  74.6004 234.1142 15.06375968 62982","DECAY_DATE":null,"ECCENTRICITY":"0.00013780","TLE_LINE1":"1 47635U 21012R   22084.58334491  .00050792  00000-0  34065-2 0  9997","MEAN_ANOMALY":"234.1142","TIME_SYSTEM":"UTC","GP_ID":"199632787","LAUNCH_DATE":"2021-02-16","COUNTRY_CODE":"US","EPOCH":"2022-03-25T14:00:01.000224","CENTER_NAME":"EARTH","FILE":"3373459","OBJECT_TYPE":"PAYLOAD","CLASSIFICATION_TYPE":"U","MEAN_MOTION_DOT":"0.00050792","OBJECT_NAME":"STARLINK-2012","BSTAR":"0.00340650000000","INCLINATION":"53.0589","PERIAPSIS":"546.333","REV_AT_EPOCH":"6298","NORAD_CAT_ID":"47635","MEAN_MOTION":"15.06375968","REF_FRAME":"TEME","ARG_OF_PERICENTER":"74.6004","OBJECT_ID":"2021-012R","EPHEMERIS_TYPE":"0","RCS_SIZE":"LARGE","ELEMENT_SET_NO":"999"},{"RA_OF_ASC_NODE":"58.7867","SEMIMAJOR_AXIS":"6925.344","MEAN_ELEMENT_THEORY":"SGP4","MEAN_MOTION_DDOT":"0.0000000000000","SITE":"AFETR","APOAPSIS":"548.184","CENTER_NAME":"EARTH","LAUNCH_DATE":"2021-02-16","COUNTRY_CODE":"US","EPOCH":"2022-03-25T14:54:07.646112","GP_ID":"199667556","FILE":"3373926","ECCENTRICITY":"0.00014070","DECAY_DATE":null,"TLE_LINE2":"2 47636  53.0576  58.7867 0001407  78.3051 281.8096 15.06401387 61940","PERIOD":"95.592","MEAN_ANOMALY":"281.8096","TIME_SYSTEM":"UTC","TLE_LINE1":"1 47636U 21012S   22084.62092183  .00000123  00000-0  27161-4 0  9996","BSTAR":"0.00002716100000","NORAD_CAT_ID":"47636","PERIAPSIS":"546.235","REV_AT_EPOCH":"6194","INCLINATION":"53.0576","OBJECT_TYPE":"PAYLOAD","OBJECT_NAME":"STARLINK-2013","MEAN_MOTION_DOT":"0.00000123","CLASSIFICATION_TYPE":"U","RCS_SIZE":"LARGE","ELEMENT_SET_NO":"999","MEAN_MOTION":"15.06401387","EPHEMERIS_TYPE":"0","OBJECT_ID":"2021-012S","ARG_OF_PERICENTER":"78.3051","REF_FRAME":"TEME"},{"OBJECT_TYPE":"PAYLOAD","OBJECT_NAME":"STARLINK-2014","MEAN_MOTION_DOT":"0.00002287","CLASSIFICATION_TYPE":"U","BSTAR":"0.00017236000000","NORAD_CAT_ID":"47637","PERIAPSIS":"545.941","REV_AT_EPOCH":"6242","INCLINATION":"53.0558","MEAN_MOTION":"15.06400432","OBJECT_ID":"2021-012T","EPHEMERIS_TYPE":"0","ARG_OF_PERICENTER":"51.4105","REF_FRAME":"TEME","RCS_SIZE":"LARGE","ELEMENT_SET_NO":"999","MEAN_MOTION_DDOT":"0.0000000000000","APOAPSIS":"548.484","SITE":"AFETR","RA_OF_ASC_NODE":"60.1072","MEAN_ELEMENT_THEORY":"SGP4","SEMIMAJOR_AXIS":"6925.347","ECCENTRICITY":"0.00018360","DECAY_DATE":null,"TLE_LINE2":"2 47637  53.0558  60.1072 0001836  51.4105 308.7049 15.06400432 62425","PERIOD":"95.592","MEAN_ANOMALY":"308.7049","TIME_SYSTEM":"UTC","TLE_LINE1":"1 47637U 21012T   22084.32604890  .00002287  00000-0  17236-3 0  9992","CENTER_NAME":"EARTH","LAUNCH_DATE":"2021-02-16","COUNTRY_CODE":"US","EPOCH":"2022-03-25T07:49:30.624960","GP_ID":"199663129","FILE":"3373822"}];
